NORAD_CAT_ID,OBJECT_NAME,OBJECT_TYPE,EPOCH,MEAN_MOTION,ECCENTRICITY,INCLINATION,RA_OF_ASC_NODE,ARG_OF_PERICENTER,MEAN_ANOMALY,BSTAR,MEAN_MOTION_DOT,MEAN_MOTION_DDOT,TLE_LINE0,TLE_LINE1,TLE_LINE2,SEMIMAJOR_AXIS,PERIOD,APOGEE,PERIGEE,DECAYED
52544.0,STARLINK-3944,PAYLOAD,2022-10-01 23:48:30,15.08853656,0.0001885,53.2152,6.6909,44.6793,315.4351,0.00017222,2.455e-05,0.0,0 STARLINK-3944,1 52544U 22051M   22274.99201427  .00002455  00000-0  17222-3 0  9994,2 52544  53.2152   6.6909 0001885  44.6793 315.4351 15.08853656 22020,6917.839,95.437,541.008,538.4,0.0
52544.0,STARLINK-3944,PAYLOAD,2022-10-02 12:31:35,15.08832072,0.0001919,53.2158,4.311,43.2115,316.9027,-0.00027579,-4.674e-05,0.0,0 STARLINK-3944,1 52544U 22051M   22275.52194099 -.00004674  00000-0 -27579-3 0  9993,2 52544  53.2158   4.3110 0001919  43.2115 316.9027 15.08832072 22032,6917.905,95.438,541.097,538.442,0.0
52544.0,STARLINK-3944,PAYLOAD,2022-10-02 17:17:45,15.08833168,0.0001921,53.2169,3.4201,44.697,315.4177,-0.00016504,-2.913e-05,0.0,0 STARLINK-3944,1 52544U 22051M   22275.72066245 -.00002913  00000-0 -16504-3 0  9996,2 52544  53.2169   3.4201 0001921  44.6970 315.4177 15.08833168 22062,6917.901,95.438,541.095,538.437,0.0
52544.0,STARLINK-3944,PAYLOAD,2022-10-03 12:22:22,15.08855152,0.0001949,53.2168,359.8512,49.5403,310.5759,0.00042523,6.489e-05,0.0,0 STARLINK-3944,1 52544U 22051M   22276.51553768  .00006489  00000-0  42523-3 0  9995,2 52544  53.2168 359.8512 0001949  49.5403 310.5759 15.08855152 22259,6917.834,95.437,541.047,538.351,0.0
52544.0,STARLINK-3944,PAYLOAD,2022-10-03 17:08:31,15.08865055,0.0001956999999999,53.217,358.9593,48.3521,311.7639,0.00059851,9.257e-05,0.0,0 STARLINK-3944,1 52544U 22051M   22276.71425288  .00009257  00000-0  59851-3 0  9990,2 52544  53.2170 358.9593 0001957  48.3521 311.7639 15.08865055 22217,6917.804,95.436,541.023,538.315,0.0
52544.0,STARLINK-3944,PAYLOAD,2022-10-04 10:37:45,15.08856886,0.0001635,53.218,355.68699999999984,51.1398,308.974,0.00035461,5.363e-05,0.0,0 STARLINK-3944,1 52544U 22051M   22277.44288717  .00005363  00000-0  35461-3 0  9990,2 52544  53.2180 355.6870 0001635  51.1398 308.9740 15.08856886 22399,6917.829000000002,95.436,540.825,538.563,0.0
52544.0,STARLINK-3944,PAYLOAD,2022-10-05 05:42:24,15.08834075,0.0001823,53.2191,352.1209,48.7271,311.3878,1.9759e-05,2.6e-07,0.0,0 STARLINK-3944,1 52544U 22051M   22278.23777971  .00000026  00000-0  19759-4 0  9997,2 52544  53.2191 352.1209 0001823  48.7271 311.3878 15.08834075 22510,6917.898,95.438,541.025,538.502,0.0
52544.0,STARLINK-3944,PAYLOAD,2022-10-05 10:28:33,15.08839195,0.0001803,53.2179,351.2279,47.2082,312.9061,-0.00010253,-1.92e-05,0.0,0 STARLINK-3944,1 52544U 22051M   22278.43650025 -.00001920  00000-0 -10253-3 0  9994,2 52544  53.2179 351.2279 0001803  47.2082 312.9061 15.08839195 22479,6917.8830000000025,95.438,540.995,538.501,0.0
52544.0,STARLINK-3944,PAYLOAD,2022-10-06 11:54:43,15.08844332,0.0001855999999999,53.2177,346.4715,40.4532,319.6598,2.1002e-05,4.6e-07,0.0,0 STARLINK-3944,1 52544U 22051M   22279.49633489  .00000046  00000-0  21002-4 0  9997,2 52544  53.2177 346.4715 0001856  40.4532 319.6598 15.08844332 22637,6917.8669999999975,95.437,541.016,538.448,0.0
52544.0,STARLINK-3944,PAYLOAD,2022-10-06 13:30:06,15.08847542,0.0001801,53.2175,346.1734,44.3402,315.7734,4.9409e-05,4.98e-06,0.0,0 STARLINK-3944,1 52544U 22051M   22279.56257231  .00000498  00000-0  49409-4 0  9994,2 52544  53.2175 346.1734 0001801  44.3402 315.7734 15.08847542 22648,6917.857,95.437,540.9680000000002,538.476,0.0
52544.0,STARLINK-3944,PAYLOAD,2022-10-06 21:27:02,15.08840842,0.0001943,53.2172,344.6864,41.5469,318.5671,0.0001456,2.03e-05,0.0,0 STARLINK-3944,1 52544U 22051M   22279.89377597  .00002030  00000-0  14560-3 0  9991,2 52544  53.2172 344.6864 0001943  41.5469 318.5671 15.08840842 22761,6917.878000000002,95.438,541.087,538.399,0.0
52544.0,STARLINK-3944,PAYLOAD,2022-10-07 10:10:07,15.08843654,0.0001994,53.217,342.30800000000005,47.8127,312.3035,4.2012e-05,3.81e-06,0.0,0 STARLINK-3944,1 52544U 22051M   22280.42369742  .00000381  00000-0  42012-4 0  9996,2 52544  53.2170 342.3080 0001994  47.8127 312.3035 15.08843654 22771,6917.869000000002,95.437,541.114,538.355,0.0
52544.0,STARLINK-3944,PAYLOAD,2022-10-07 21:17:49,15.08842602,0.000208,53.2172,340.227,41.8168,318.2983,0.00022201,3.247e-05,0.0,0 STARLINK-3944,1 52544U 22051M   22280.88737899  .00003247  00000-0  22201-3 0  9999,2 52544  53.2172 340.2270 0002080  41.8168 318.2983 15.08842602 22844,6917.871999999999,95.437,541.1759999999998,538.299,0.0
52544.0,STARLINK-3944,PAYLOAD,2022-10-08 03:39:22,15.08844697,0.0002070999999999,53.2178,339.0369,45.6566,314.4595,0.00011249,1.503e-05,0.0,0 STARLINK-3944,1 52544U 22051M   22281.15233804  .00001503  00000-0  11249-3 0  9990,2 52544  53.2178 339.0369 0002071  45.6566 314.4595 15.08844697 22954,6917.866,95.437,541.164,538.298,0.0
52544.0,STARLINK-3944,PAYLOAD,2022-10-08 11:36:18,15.08837262,0.0001841,53.2171,337.5484,39.7994,320.3133,-9.9221e-06,-4.46e-06,0.0,0 STARLINK-3944,1 52544U 22051M   22281.48354557 -.00000446  00000-0 -99221-5 0  9990,2 52544  53.2171 337.5484 0001841  39.7994 320.3133 15.08837262 23002,6917.889,95.438,541.0269999999998,538.48,0.0
52544.0,STARLINK-3944,PAYLOAD,2022-10-08 16:22:27,15.0884087,0.0001744,53.2176,336.6566,42.4132,317.6995,2.8145e-05,1.6e-06,0.0,0 STARLINK-3944,1 52544U 22051M   22281.68226128  .00000160  00000-0  28145-4 0  9991,2 52544  53.2176 336.6566 0001744  42.4132 317.6995 15.08840870 22963,6917.878000000002,95.437,540.9490000000002,538.536,0.0
52544.0,STARLINK-3944,PAYLOAD,2022-10-09 11:27:05,15.08843041,0.0001928,53.2172,333.0881,40.5622,319.5514,-1.4016e-05,-5.11e-06,0.0,0 STARLINK-3944,1 52544U 22051M   22282.47714375 -.00000511  00000-0 -14016-4 0  9999,2 52544  53.2172 333.0881 0001928  40.5622 319.5514 15.08843041 23082,6917.871,95.437,541.07,538.4019999999998,0.0
52544.0,STARLINK-3944,PAYLOAD,2022-10-09 14:37:51,15.08846955,0.0002024,53.2173,332.4934,39.4212,320.6927,3.748e-05,3.08e-06,0.0,0 STARLINK-3944,1 52544U 22051M   22282.60961977  .00000308  00000-0  37480-4 0  9998,2 52544  53.2173 332.4934 0002024  39.4212 320.6927 15.08846955 23173,6917.859,95.437,541.124,538.3240000000002,0.0
52544.0,STARLINK-3944,PAYLOAD,2022-10-09 20:59:22,15.08858879,0.0001991,53.2174,331.3044,40.7446,319.3695,0.00010568,1.395e-05,0.0,0 STARLINK-3944,1 52544U 22051M   22282.87456896  .00001395  00000-0  10568-3 0  9990,2 52544  53.2174 331.3044 0001991  40.7446 319.3695 15.08858879 23142,6917.823,95.436,541.065,538.31,0.0
52544.0,STARLINK-3944,PAYLOAD,2022-10-10 09:42:28,15.0883803,0.0001874,53.2173,328.925,39.579,320.5339,7.1708e-05,8.53e-06,0.0,0 STARLINK-3944,1 52544U 22051M   22283.40450153  .00000853  00000-0  71708-4 0  9992,2 52544  53.2173 328.9250 0001874  39.5790 320.5339 15.08838030 23292,6917.886,95.438,541.048,538.455,0.0
52544.0,STARLINK-3944,PAYLOAD,2022-10-10 14:28:38,15.08833377,0.0001916999999999,53.2174,328.034,39.7604,320.3528,9.1545e-05,1.169e-05,0.0,0 STARLINK-3944,1 52544U 22051M   22283.60322429  .00001169  00000-0  91545-4 0  9990,2 52544  53.2174 328.0340 0001917  39.7604 320.3528 15.08833377 23251,6917.901,95.438,541.092,538.439,0.0
52544.0,STARLINK-3944,PAYLOAD,2022-10-11 12:44:03,15.08826627,0.0001925,53.2169,323.8701,32.7439,327.3672,-0.00011897,-2.18e-05,0.0,0 STARLINK-3944,1 52544U 22051M   22284.53059741 -.00002180  00000-0 -11897-3 0  9994,2 52544  53.2169 323.8701 0001925  32.7439 327.3672 15.08826627 23399,6917.920999999999,95.438,541.118,538.455,0.0
52544.0,STARLINK-3944,PAYLOAD,2022-10-11 14:19:27,15.08818913,0.0001947,53.2165,323.5722,34.9639,325.148,-0.00011572,-2.128e-05,0.0,0 STARLINK-3944,1 52544U 22051M   22284.59684278 -.00002128  00000-0 -11572-3 0  9991,2 52544  53.2165 323.5722 0001947  34.9639 325.1480 15.08818913 23409,6917.945,95.439,541.1569999999998,538.4630000000002,0.0
52544.0,STARLINK-3944,PAYLOAD,2022-10-12 12:34:50,15.08828569,0.0001974,53.2164,319.4091,33.791,326.3208,-8.5227e-06,-4.24e-06,0.0,0 STARLINK-3944,1 52544U 22051M   22285.52420095 -.00000424  00000-0 -85227-5 0  9997,2 52544  53.2164 319.4091 0001974  33.7910 326.3208 15.08828569 23544,6917.915,95.438,541.146,538.415,0.0
52544.0,STARLINK-3944,PAYLOAD,2022-10-12 14:10:13,15.08831361,0.0001965,53.2166,319.1122,33.6433,326.4683,2.4572e-05,1.03e-06,0.0,0 STARLINK-3944,1 52544U 22051M   22285.59043858  .00000103  00000-0  24572-4 0  9999,2 52544  53.2166 319.1122 0001965  33.6433 326.4683 15.08831361 23550,6917.906999999997,95.438,541.131,538.4119999999998,0.0
52544.0,STARLINK-3944,PAYLOAD,2022-10-13 01:17:55,15.08839671,0.0001996,53.2165,317.0304,32.2796,327.8318,0.00010798,1.431e-05,0.0,0 STARLINK-3944,1 52544U 22051M   22286.05411225  .00001431  00000-0  10798-3 0  9997,2 52544  53.2165 317.0304 0001996  32.2796 327.8318 15.08839671 23696,6917.880999999999,95.438,541.127,538.366,0.0
52544.0,STARLINK-3944,PAYLOAD,2022-10-13 09:14:51,15.08830124,0.0001972,53.2167,315.5438,35.0861,325.0261,0.00016358,2.316e-05,0.0,0 STARLINK-3944,1 52544U 22051M   22286.38531781  .00002316  00000-0  16358-3 0  9994,2 52544  53.2167 315.5438 0001972  35.0861 325.0261 15.08830124 23676,6917.911,95.438,541.14,538.411,0.0
52544.0,STARLINK-3944,PAYLOAD,2022-10-13 12:25:37,15.08831146,0.0002005,53.2171,314.9484,36.5201,323.5928,0.00017323,2.469e-05,0.0,0 STARLINK-3944,1 52544U 22051M   22286.51779811  .00002469  00000-0  17323-3 0  9999,2 52544  53.2171 314.9484 0002005  36.5201 323.5928 15.08831146 23765,6917.906999999997,95.438,541.159,538.385,0.0
52544.0,STARLINK-3944,PAYLOAD,2022-10-13 18:47:09,15.08836824,0.0002365,53.218,313.7583,33.1348,326.9792,0.00023547,3.461e-05,0.0,0 STARLINK-3944,1 52544U 22051M   22286.78275422  .00003461  00000-0  23547-3 0  9995,2 52544  53.2180 313.7583 0002365  33.1348 326.9792 15.08836824 23737,6917.89,95.438,541.391,538.119,0.0
